[{"OBJECT_NAME":"STARLINK-34111","OBJECT_ID":"2025-102V","EPOCH":"2026-03-09T16:00:03.000096","MEAN_MOTION":14.98337597,"ECCENTRICITY":0.00037957,"INCLINATION":69.9997,"RA_OF_ASC_NODE":114.558,"ARG_OF_PERICENTER":273.595,"MEAN_ANOMALY":224.4802,"EPHEMERIS_TYPE":0,"CLASSIFICATION_TYPE":"U","NORAD_CAT_ID":64041,"ELEMENT_SET_NO":999,"REV_AT_EPOCH":563,"BSTAR":-0.0013533714,"MEAN_MOTION_DOT":-0.00016208,"MEAN_MOTION_DDOT":0},{"OBJECT_NAME":"CZ-6A DEB","OBJECT_ID":"2024-140KN","EPOCH":"2026-03-09T13:37:52.587264","MEAN_MOTION":14.78327521,"ECCENTRICITY":0.01349,"INCLINATION":88.7947,"RA_OF_ASC_NODE":265.1899,"ARG_OF_PERICENTER":188.1767,"MEAN_ANOMALY":171.726,"EPHEMERIS_TYPE":0,"CLASSIFICATION_TYPE":"U","NORAD_CAT_ID":60883,"ELEMENT_SET_NO":999,"REV_AT_EPOCH":8325,"BSTAR":0.00065033,"MEAN_MOTION_DOT":5.532e-5,"MEAN_MOTION_DDOT":0}]
